[{"OBJECT_NAME":"STARLINK-5017","OBJECT_ID":"2022-119AF","EPOCH":"2026-03-09T21:21:32.009184","MEAN_MOTION":15.08842616,"ECCENTRICITY":0.00013106,"INCLINATION":53.2176,"RA_OF_ASC_NODE":313.3219,"ARG_OF_PERICENTER":91.7282,"MEAN_ANOMALY":268.386,"EPHEMERIS_TYPE":0,"CLASSIFICATION_TYPE":"U","NORAD_CAT_ID":53915,"ELEMENT_SET_NO":999,"REV_AT_EPOCH":19185,"BSTAR":3.1404676e-5,"MEAN_MOTION_DOT":2.12e-6,"MEAN_MOTION_DDOT":0},{"OBJECT_NAME":"FENGYUN 1C DEB","OBJECT_ID":"1999-025AXU","EPOCH":"2026-03-09T22:45:17.410752","MEAN_MOTION":14.89016033,"ECCENTRICITY":0.0148202,"INCLINATION":97.9241,"RA_OF_ASC_NODE":129.3565,"ARG_OF_PERICENTER":114.5021,"MEAN_ANOMALY":247.1731,"EPHEMERIS_TYPE":0,"CLASSIFICATION_TYPE":"U","NORAD_CAT_ID":30882,"ELEMENT_SET_NO":999,"REV_AT_EPOCH":946,"BSTAR":0.0012177352,"MEAN_MOTION_DOT":0.00014041,"MEAN_MOTION_DDOT":0}]
